[{"OBJECT_NAME":"GRUS-1B","OBJECT_ID":"2021-022C","EPOCH":"2026-03-09T23:21:03.699936","MEAN_MOTION":14.98735678,"ECCENTRICITY":0.00144346,"INCLINATION":97.554,"RA_OF_ASC_NODE":315.3658,"ARG_OF_PERICENTER":300.5216,"MEAN_ANOMALY":59.4582,"EPHEMERIS_TYPE":0,"CLASSIFICATION_TYPE":"U","NORAD_CAT_ID":47934,"ELEMENT_SET_NO":999,"REV_AT_EPOCH":27103,"BSTAR":0.00025294791,"MEAN_MOTION_DOT":2.992e-5,"MEAN_MOTION_DDOT":0},{"OBJECT_NAME":"STARLINK-5995","OBJECT_ID":"2023-064J","EPOCH":"2026-03-09T14:44:24.607680","MEAN_MOTION":14.98321135,"ECCENTRICITY":0.0003054,"INCLINATION":70.0005,"RA_OF_ASC_NODE":144.6943,"ARG_OF_PERICENTER":267.8825,"MEAN_ANOMALY":92.1984,"EPHEMERIS_TYPE":0,"CLASSIFICATION_TYPE":"U","NORAD_CAT_ID":56456,"ELEMENT_SET_NO":999,"REV_AT_EPOCH":15523,"BSTAR":-0.00012353,"MEAN_MOTION_DOT":-1.566e-5,"MEAN_MOTION_DDOT":0}]
